ONEWEB-0033             
1 45142U 20008M   24183.04858386  .00000521  00000+0  14556-2 0  9996
2 45142  87.8933 178.7096 0001892  81.3578 278.7763 13.10375624215321
ONEWEB-0035             
1 45143U 20008N   24182.92738722 -.00000240  00000+0 -72403-3 0  9990
2 45143  87.8934 178.7160 0002017  84.6696 275.4661 13.10368463214134
ONEWEB-0036             
1 45144U 20008P   24182.91744745  .00000216  00000+0  58296-3 0  9997
2 45144  87.8930 178.6745 0002081  92.7475 267.3890 13.10369669214565
ONEWEB-0038             
1 45145U 20008Q   24182.88279160 -.00000099  00000+0 -31645-3 0  9998
2 45145  87.8964 163.6093 0002849  83.7752 276.3701 13.11415071216443
ONEWEB-0039             
1 45146U 20008R   24183.05190304  .00000595  00000+0  16673-2 0  9993
2 45146  87.8936 178.6654 0002321  97.2048 262.9343 13.10375927215159
ONEWEB-0040             
1 45147U 20008S   24182.73983860  .00000513  00000+0  14341-2 0  9995
2 45147  87.8946 178.7295 0002125  87.5606 272.5765 13.10375532214030
ONEWEB-0043             
1 45149U 20008U   24182.89421453  .00000563  00000+0  15752-2 0  9991
2 45149  87.8937 178.7050 0002367  98.6543 261.4853 13.10375502214371
ONEWEB-0044             
1 45150U 20008V   24182.92241991  .00000021  00000+0  23654-4 0  9995
2 45150  87.8931 178.6949 0002227  96.1255 264.0126 13.10369144214671
